[Satellite]
VERSION=1.1
NAME=MOLNIYA 1-89
NICKNAME=MOLNIYA 1-89
TLE1=1 24273U 96045A   11059.34301242  .00000849  00000-0  27218-3 0   262
TLE2=2 24273  62.5199 177.3370 6930591 262.9988  20.4077  2.70258519110985
